{
  "64459": {
    "noradId": "64459",
    "tle": [
      "1 64459C 25130X   25310.45256944 -.00090626  00000+0 -30562-2 0  3108",
      "2 64459  53.1595 301.0607 0001003  94.4613 258.3451 15.30263594    13"
    ]
  },
  "64460": {
    "noradId": "64460",
    "tle": [
      "1 64460C 25130Y   25310.44909722 -.00025468  00000+0 -85853-3 0  3104",
      "2 64460  53.1582 300.6868 0001343  83.6831  87.6908 15.30211237    11"
    ]
  },
  "64461": {
    "noradId": "64461",
    "tle": [
      "1 64461C 25130Z   25310.45256944 -.00031266  00000+0 -10538-2 0  3107",
      "2 64461  53.1585 301.1629 0001197  82.9477 217.4413 15.30223203    11"
    ]
  },
  "64462": {
    "noradId": "64462",
    "tle": [
      "1 64462C 25130AA  25310.45673611 -.00023512  00000+0 -79313-3 0  3104",
      "2 64462  53.1581 303.4896 0001360  91.2941  89.7059 15.30187473    14"
    ]
  },
  "64463": {
    "noradId": "64463",
    "tle": [
      "1 64463C 25130AB  25310.45673611 -.00010838  00000+0 -36542-3 0  3109",
      "2 64463  53.1575 303.4884 0001484  99.4652 116.3177 15.30189218    18"
    ]
  },
  "64464": {
    "noradId": "64464",
    "tle": [
      "1 64464C 25130AC  25310.45465278 -.00017762  00000+0 -59880-3 0  3101",
      "2 64464  53.1600 300.8761 0001342  92.5594 358.9350 15.30200797    18"
    ]
  },
  "64465": {
    "noradId": "64465",
    "tle": [
      "1 64465C 25130AD  25310.44979167 -.00026696  00000+0 -89985-3 0  3103",
      "2 64465  53.1593 301.0913 0000877  87.1089 238.6987 15.30214856    14"
    ]
  },
  "64472": {
    "noradId": "64472",
    "tle": [
      "1 64472C 25133A   25310.45673611 -.00074500  00000+0 -18580-2 0  3109",
      "2 64472  53.1598 330.3907 0001467  78.4200 302.8600 15.39705337    13"
    ]
  },
  "64473": {
    "noradId": "64473",
    "tle": [
      "1 64473C 25133B   25310.45256944 -.00033402  00000+0 -83355-3 0  3105",
      "2 64473  53.1597 330.3629 0001343  91.9322 290.1660 15.39646655    14"
    ]
  },
  "64474": {
    "noradId": "64474",
    "tle": [
      "1 64474C 25133C   25310.45604167  .00113460  00000+0  28334-2 0  3106",
      "2 64474  53.1598 330.3429 0001063 102.4926 300.7265 15.39477385    12"
    ]
  },
  "64475": {
    "noradId": "64475",
    "tle": [
      "1 64475C 25133D   25310.45465278 -.00041514  00000+0 -10358-2 0  3104",
      "2 64475  53.1596 330.3019 0001280  84.9759 334.4097 15.39661213    17"
    ]
  },
  "64476": {
    "noradId": "64476",
    "tle": [
      "1 64476C 25133E   25310.45187500 -.00040490  00000+0 -10102-2 0  3103",
      "2 64476  53.1596 330.3112 0001356  79.2732 326.5716 15.39660254    18"
    ]
  },
  "64477": {
    "noradId": "64477",
    "tle": [
      "1 64477C 25133F   25310.45604167 -.00025387  00000+0 -63361-3 0  3101",
      "2 64477  53.1593 330.2437 0001421  83.4564   9.4156 15.39634057    15"
    ]
  },
  "64478": {
    "noradId": "64478",
    "tle": [
      "1 64478C 25133G   25310.45326389 -.00031102  00000+0 -77604-3 0  3106",
      "2 64478  53.1592 330.2060 0001484  84.6862  18.5043 15.39648088    15"
    ]
  },
  "64479": {
    "noradId": "64479",
    "tle": [
      "1 64479C 25133H   25310.44979167 -.00030145  00000+0 -75221-3 0  3103",
      "2 64479  53.1594 330.2693 0001330  89.1436 330.9254 15.39645811    13"
    ]
  },
  "64480": {
    "noradId": "64480",
    "tle": [
      "1 64480C 25133J   25310.45256944 -.00021496  00000+0 -53672-3 0  3102",
      "2 64480  53.1594 330.2049 0001160  98.1547   3.1234 15.39617976    12"
    ]
  },
  "64481": {
    "noradId": "64481",
    "tle": [
      "1 64481C 25133K   25310.45256944 -.00044137  00000+0 -11013-2 0  3102",
      "2 64481  53.1591 330.1575 0001097  89.9552  35.1426 15.39661646    17"
    ]
  },
  "64482": {
    "noradId": "64482",
    "tle": [
      "1 64482C 25133L   25310.45256944 -.00033925  00000+0 -84652-3 0  3106",
      "2 64482  53.1591 330.1535 0000914  86.4474  40.5318 15.39649778    18"
    ]
  },
  "64483": {
    "noradId": "64483",
    "tle": [
      "1 64483C 25133M   25310.45534722 -.00045837  00000+0 -11437-2 0  3105",
      "2 64483  53.1591 330.0928 0001134  99.1338  67.1191 15.39663847    16"
    ]
  },
  "64484": {
    "noradId": "64484",
    "tle": [
      "1 64484C 25133N   25310.45187500 -.00041072  00000+0 -10249-2 0  3101",
      "2 64484  53.1591 330.1052 0001358  77.1721  71.6992 15.39654489    17"
    ]
  },
  "64485": {
    "noradId": "64485",
    "tle": [
      "1 64485C 25133P   25310.45465278 -.00048033  00000+0 -11985-2 0  3105",
      "2 64485  53.1589 330.0435 0001152  87.4932 100.6609 15.39666570    11"
    ]
  },
  "64486": {
    "noradId": "64486",
    "tle": [
      "1 64486C 25133Q   25310.45534722 -.00044004  00000+0 -10979-2 0  3103",
      "2 64486  53.1591 330.0366 0001130  93.7268 100.1372 15.39664006    10"
    ]
  },
  "64487": {
    "noradId": "64487",
    "tle": [
      "1 64487C 25133R   25310.45465278  .00002714  00000+0  67717-4 0  3107",
      "2 64487  53.1592 329.9923 0001370  86.9245 126.9822 15.39611977    18"
    ]
  },
  "64488": {
    "noradId": "64488",
    "tle": [
      "1 64488C 25133S   25310.47131944 -.00042184  00000+0 -10525-2 0  3100",
      "2 64488  53.1592 329.9094 0001337  80.7350 227.4696 15.39662164    10"
    ]
  },
  "64489": {
    "noradId": "64489",
    "tle": [
      "1 64489C 25133T   25310.45812500  .00005199  00000+0  12962-3 0  3104",
      "2 64489  53.1593 329.9239 0001548  70.0820 188.7322 15.39633592    19"
    ]
  },
  "64490": {
    "noradId": "64490",
    "tle": [
      "1 64490C 25133U   25310.45326389 -.00053406  00000+0 -13325-2 0  3100",
      "2 64490  53.1594 329.9427 0001313  89.9718 143.8465 15.39672827    10"
    ]
  },
  "64491": {
    "noradId": "64491",
    "tle": [
      "1 64491C 25133V   25310.45604167 -.00060412  00000+0 -15072-2 0  3100",
      "2 64491  53.1596 329.8817 0001182  90.6666 182.4301 15.39681877    13"
    ]
  },
  "64492": {
    "noradId": "64492",
    "tle": [
      "1 64492C 25133W   25310.45604167 -.00034194  00000+0 -85328-3 0  3101",
      "2 64492  53.1593 329.8770 0001385  92.1726 182.8154 15.39648550    19"
    ]
  },
  "64493": {
    "noradId": "64493",
    "tle": [
      "1 64493C 25133X   25310.45604167 -.00040238  00000+0 -10041-2 0  3107",
      "2 64493  53.1594 329.8289 0001307  88.3307 210.5418 15.39654897    15"
    ]
  },
  "64494": {
    "noradId": "64494",
    "tle": [
      "1 64494C 25133Y   25310.46993056 -.00028805  00000+0 -71888-3 0  3100",
      "2 64494  53.1595 329.7597 0001208  92.3426 285.4325 15.39639488    12"
    ]
  },
  "64495": {
    "noradId": "64495",
    "tle": [
      "1 64495C 25133Z   25310.45395833 -.00034061  00000+0 -11479-2 0  3109",
      "2 64495  53.1588 326.9834 0001295  82.7480 201.5632 15.30228770    16"
    ]
  },
  "64496": {
    "noradId": "64496",
    "tle": [
      "1 64496C 25133AA  25310.47548611 -.00034589  00000+0 -86313-3 0  3101",
      "2 64496  53.1596 329.6857 0001393  88.5854 343.8777 15.39649310    15"
    ]
  },
  "64497": {
    "noradId": "64497",
    "tle": [
      "1 64497C 25133AB  25310.45256944 -.00042103  00000+0 -10506-2 0  3106",
      "2 64497  53.1597 329.7420 0001209  94.1582 236.9539 15.39658731    16"
    ]
  },
  "64498": {
    "noradId": "64498",
    "tle": [
      "1 64498C 25133AC  25310.45673611 -.00045625  00000+0 -11384-2 0  3108",
      "2 64498  53.1596 329.7185 0001223  93.6936 262.3875 15.39662965    17"
    ]
  },
  "64594": {
    "noradId": "64594",
    "tle": [
      "1 64594C 25137A   25310.46993056 -.00023521  00000+0 -58714-3 0  3108",
      "2 64594  53.1580 192.0574 0001209  84.7453  17.2410 15.39628405    12"
    ]
  },
  "64595": {
    "noradId": "64595",
    "tle": [
      "1 64595C 25137B   25310.45326389 -.00017526  00000+0 -43738-3 0  3105",
      "2 64595  53.1584 191.7771 0001222  76.5482 113.2732 15.39630206    14"
    ]
  },
  "64596": {
    "noradId": "64596",
    "tle": [
      "1 64596C 25137C   25310.45118056 -.00020628  00000+0 -51490-3 0  3107",
      "2 64596  53.1574 191.9916 0001118  92.7418 342.5224 15.39626441    19"
    ]
  },
  "64597": {
    "noradId": "64597",
    "tle": [
      "1 64597C 25137D   25310.45187500 -.00018496  00000+0 -46160-3 0  3106",
      "2 64597  53.1587 191.6297 0001201  84.8768 174.4969 15.39629402    14"
    ]
  },
  "64598": {
    "noradId": "64598",
    "tle": [
      "1 64598C 25137E   25310.45604167 -.00015730  00000+0 -39248-3 0  3107",
      "2 64598  53.1586 191.5078 0001245  90.0023 243.9732 15.39633894    11"
    ]
  },
  "64599": {
    "noradId": "64599",
    "tle": [
      "1 64599C 25137F   25310.47270833 -.00091282  00000+0 -22774-2 0  3100",
      "2 64599  53.1581 191.7863 0001109  95.7629 150.3638 15.39711407    17"
    ]
  },
  "64600": {
    "noradId": "64600",
    "tle": [
      "1 64600C 25137G   25310.44979167 -.00021637  00000+0 -53992-3 0  3100",
      "2 64600  53.1578 192.0995 0001200  86.7821 289.2627 15.39635834    11"
    ]
  },
  "64601": {
    "noradId": "64601",
    "tle": [
      "1 64601C 25137H   25310.45465278 -.00019083  00000+0 -47621-3 0  3109",
      "2 64601  53.1578 191.9227 0001165  86.3365  33.9306 15.39633585    16"
    ]
  },
  "64602": {
    "noradId": "64602",
    "tle": [
      "1 64602C 25137J   25310.45534722  .00046314  00000+0  11581-2 0  3101",
      "2 64602  53.1586 191.7147 0000934  95.7759 131.3956 15.39507477    13"
    ]
  },
  "64603": {
    "noradId": "64603",
    "tle": [
      "1 64603C 25137K   25310.45187500 -.00022274  00000+0 -55594-3 0  3104",
      "2 64603  53.1586 191.6793 0001246  97.6922 135.9307 15.39630222    15"
    ]
  },
  "64604": {
    "noradId": "64604",
    "tle": [
      "1 64604C 25137L   25310.44979167 -.00023372  00000+0 -58392-3 0  3101",
      "2 64604  53.1575 192.0471 0001026  98.7847 303.1390 15.39601804    11"
    ]
  }
}